CCSDS_OMM_VERS = 2.0
CREATION_DATE  = 
ORIGINATOR     = 

OBJECT_NAME    = STARLINK-35860
OBJECT_ID      = 2025-283D
CENTER_NAME    = EARTH
REF_FRAME      = TEME
TIME_SYSTEM    = UTC
MEAN_ELEMENT_THEORY = SGP/SGP4

EPOCH          = 2025-12-31T08:28:18.286752
MEAN_MOTION    = 15.49382648
ECCENTRICITY   = .00013706
INCLINATION    = 53.1600
RA_OF_ASC_NODE = 342.1440
ARG_OF_PERICENTER = 88.7766
MEAN_ANOMALY   = 271.3400

EPHEMERIS_TYPE = 0
CLASSIFICATION_TYPE = U
NORAD_CAT_ID   = 66881
ELEMENT_SET_NO = 999
REV_AT_EPOCH   = 537
BSTAR          = .17094142E-2
MEAN_MOTION_DOT = .96048E-3
MEAN_MOTION_DDOT = 0

CCSDS_OMM_VERS = 2.0
CREATION_DATE  = 
ORIGINATOR     = 

OBJECT_NAME    = STARLINK-35912
OBJECT_ID      = 2025-283E
CENTER_NAME    = EARTH
REF_FRAME      = TEME
TIME_SYSTEM    = UTC
MEAN_ELEMENT_THEORY = SGP/SGP4

EPOCH          = 2025-12-31T14:00:01.999872
MEAN_MOTION    = 15.47115105
ECCENTRICITY   = .00016466
INCLINATION    = 53.1595
RA_OF_ASC_NODE = 341.0420
ARG_OF_PERICENTER = 84.3999
MEAN_ANOMALY   = 121.2126

EPHEMERIS_TYPE = 0
CLASSIFICATION_TYPE = U
NORAD_CAT_ID   = 66882
ELEMENT_SET_NO = 999
REV_AT_EPOCH   = 545
BSTAR          = -.45534258E-1
MEAN_MOTION_DOT = -.2083642E-1
MEAN_MOTION_DDOT = 0

CCSDS_OMM_VERS = 2.0
CREATION_DATE  = 
ORIGINATOR     = 

OBJECT_NAME    = STARLINK-35947
OBJECT_ID      = 2025-283F
CENTER_NAME    = EARTH
REF_FRAME      = TEME
TIME_SYSTEM    = UTC
MEAN_ELEMENT_THEORY = SGP/SGP4

EPOCH          = 2025-12-31T14:00:01.999872
MEAN_MOTION    = 15.45600806
ECCENTRICITY   = .00013462
INCLINATION    = 53.1596
RA_OF_ASC_NODE = 341.0450
ARG_OF_PERICENTER = 90.7009
MEAN_ANOMALY   = 113.2113

EPHEMERIS_TYPE = 0
CLASSIFICATION_TYPE = U
NORAD_CAT_ID   = 66883
ELEMENT_SET_NO = 999
REV_AT_EPOCH   = 550
BSTAR          = -.48417092E-1
MEAN_MOTION_DOT = -.2099576E-1
MEAN_MOTION_DDOT = 0

CCSDS_OMM_VERS = 2.0
CREATION_DATE  = 
ORIGINATOR     = 

OBJECT_NAME    = STARLINK-36057
OBJECT_ID      = 2025-283G
CENTER_NAME    = EARTH
REF_FRAME      = TEME
TIME_SYSTEM    = UTC
MEAN_ELEMENT_THEORY = SGP/SGP4

EPOCH          = 2025-12-31T05:20:33.396000
MEAN_MOTION    = 15.49343070
ECCENTRICITY   = .000142
INCLINATION    = 53.1599
RA_OF_ASC_NODE = 342.7508
ARG_OF_PERICENTER = 114.7727
MEAN_ANOMALY   = 245.3430

EPHEMERIS_TYPE = 0
CLASSIFICATION_TYPE = U
NORAD_CAT_ID   = 66884
ELEMENT_SET_NO = 999
REV_AT_EPOCH   = 535
BSTAR          = .19229E-2
MEAN_MOTION_DOT = .108114E-2
MEAN_MOTION_DDOT = 0

CCSDS_OMM_VERS = 2.0
CREATION_DATE  = 
ORIGINATOR     = 

OBJECT_NAME    = STARLINK-35954
OBJECT_ID      = 2025-283H
CENTER_NAME    = EARTH
REF_FRAME      = TEME
TIME_SYSTEM    = UTC
MEAN_ELEMENT_THEORY = SGP/SGP4

EPOCH          = 2025-12-31T08:26:50.096544
MEAN_MOTION    = 15.49340786
ECCENTRICITY   = .00020278
INCLINATION    = 53.1602
RA_OF_ASC_NODE = 342.1363
ARG_OF_PERICENTER = 112.7901
MEAN_ANOMALY   = 247.3322

EPHEMERIS_TYPE = 0
CLASSIFICATION_TYPE = U
NORAD_CAT_ID   = 66885
ELEMENT_SET_NO = 999
REV_AT_EPOCH   = 537
BSTAR          = .14386059E-2
MEAN_MOTION_DOT = .80482E-3
MEAN_MOTION_DDOT = 0

CCSDS_OMM_VERS = 2.0
CREATION_DATE  = 
ORIGINATOR     = 

OBJECT_NAME    = STARLINK-35900
OBJECT_ID      = 2025-283J
CENTER_NAME    = EARTH
REF_FRAME      = TEME
TIME_SYSTEM    = UTC
MEAN_ELEMENT_THEORY = SGP/SGP4

EPOCH          = 2025-12-31T08:25:50.941056
MEAN_MOTION    = 15.49337716
ECCENTRICITY   = .00019821
INCLINATION    = 53.1607
RA_OF_ASC_NODE = 342.1315
ARG_OF_PERICENTER = 84.9587
MEAN_ANOMALY   = 275.1648

EPHEMERIS_TYPE = 0
CLASSIFICATION_TYPE = U
NORAD_CAT_ID   = 66886
ELEMENT_SET_NO = 999
REV_AT_EPOCH   = 537
BSTAR          = .15995415E-2
MEAN_MOTION_DOT = .89631E-3
MEAN_MOTION_DDOT = 0

CCSDS_OMM_VERS = 2.0
CREATION_DATE  = 
ORIGINATOR     = 

OBJECT_NAME    = STARLINK-35925
OBJECT_ID      = 2025-283K
CENTER_NAME    = EARTH
REF_FRAME      = TEME
TIME_SYSTEM    = UTC
MEAN_ELEMENT_THEORY = SGP/SGP4

EPOCH          = 2025-12-31T05:19:33.919104
MEAN_MOTION    = 15.49360357
ECCENTRICITY   = .0001217
INCLINATION    = 53.1602
RA_OF_ASC_NODE = 342.7455
ARG_OF_PERICENTER = 106.8397
MEAN_ANOMALY   = 253.2746

EPHEMERIS_TYPE = 0
CLASSIFICATION_TYPE = U
NORAD_CAT_ID   = 66887
ELEMENT_SET_NO = 999
REV_AT_EPOCH   = 535
BSTAR          = .18457E-2
MEAN_MOTION_DOT = .103761E-2
MEAN_MOTION_DDOT = 0

CCSDS_OMM_VERS = 2.0
CREATION_DATE  = 
ORIGINATOR     = 

OBJECT_NAME    = STARLINK-35919
OBJECT_ID      = 2025-283L
CENTER_NAME    = EARTH
REF_FRAME      = TEME
TIME_SYSTEM    = UTC
MEAN_ELEMENT_THEORY = SGP/SGP4

EPOCH          = 2025-12-31T13:03:31.683744
MEAN_MOTION    = 15.49345601
ECCENTRICITY   = .00017074
INCLINATION    = 53.1599
RA_OF_ASC_NODE = 341.1918
ARG_OF_PERICENTER = 129.6989
MEAN_ANOMALY   = 230.4171

EPHEMERIS_TYPE = 0
CLASSIFICATION_TYPE = U
NORAD_CAT_ID   = 66888
ELEMENT_SET_NO = 999
REV_AT_EPOCH   = 540
BSTAR          = .16461771E-2
MEAN_MOTION_DOT = .92314E-3
MEAN_MOTION_DDOT = 0

CCSDS_OMM_VERS = 2.0
CREATION_DATE  = 
ORIGINATOR     = 

OBJECT_NAME    = STARLINK-35852
OBJECT_ID      = 2025-283M
CENTER_NAME    = EARTH
REF_FRAME      = TEME
TIME_SYSTEM    = UTC
MEAN_ELEMENT_THEORY = SGP/SGP4

EPOCH          = 2025-12-31T06:50:44.127744
MEAN_MOTION    = 15.53492178
ECCENTRICITY   = .0016761
INCLINATION    = 53.1592
RA_OF_ASC_NODE = 342.4280
ARG_OF_PERICENTER = 295.0972
MEAN_ANOMALY   = 64.8300

EPHEMERIS_TYPE = 0
CLASSIFICATION_TYPE = U
NORAD_CAT_ID   = 66889
ELEMENT_SET_NO = 999
REV_AT_EPOCH   = 536
BSTAR          = .67649E-1
MEAN_MOTION_DOT = .5084319E-1
MEAN_MOTION_DDOT = 0

CCSDS_OMM_VERS = 2.0
CREATION_DATE  = 
ORIGINATOR     = 

OBJECT_NAME    = STARLINK-35885
OBJECT_ID      = 2025-283N
CENTER_NAME    = EARTH
REF_FRAME      = TEME
TIME_SYSTEM    = UTC
MEAN_ELEMENT_THEORY = SGP/SGP4

EPOCH          = 2025-12-31T14:00:01.999872
MEAN_MOTION    = 15.49294886
ECCENTRICITY   = .00015331
INCLINATION    = 53.1592
RA_OF_ASC_NODE = 341.0052
ARG_OF_PERICENTER = 84.4883
MEAN_ANOMALY   = 138.4274

EPHEMERIS_TYPE = 0
CLASSIFICATION_TYPE = U
NORAD_CAT_ID   = 66890
ELEMENT_SET_NO = 999
REV_AT_EPOCH   = 545
BSTAR          = -.10616709E-3
MEAN_MOTION_DOT = -.6345E-4
MEAN_MOTION_DDOT = 0

CCSDS_OMM_VERS = 2.0
CREATION_DATE  = 
ORIGINATOR     = 

OBJECT_NAME    = STARLINK-35855
OBJECT_ID      = 2025-283P
CENTER_NAME    = EARTH
REF_FRAME      = TEME
TIME_SYSTEM    = UTC
MEAN_ELEMENT_THEORY = SGP/SGP4

EPOCH          = 2025-12-31T13:02:02.959584
MEAN_MOTION    = 15.49321780
ECCENTRICITY   = .00009625
INCLINATION    = 53.1607
RA_OF_ASC_NODE = 341.1937
ARG_OF_PERICENTER = 107.6127
MEAN_ANOMALY   = 252.4987

EPHEMERIS_TYPE = 0
CLASSIFICATION_TYPE = U
NORAD_CAT_ID   = 66891
ELEMENT_SET_NO = 999
REV_AT_EPOCH   = 540
BSTAR          = .13679467E-2
MEAN_MOTION_DOT = .76413E-3
MEAN_MOTION_DDOT = 0

CCSDS_OMM_VERS = 2.0
CREATION_DATE  = 
ORIGINATOR     = 

OBJECT_NAME    = STARLINK-35883
OBJECT_ID      = 2025-283Q
CENTER_NAME    = EARTH
REF_FRAME      = TEME
TIME_SYSTEM    = UTC
MEAN_ELEMENT_THEORY = SGP/SGP4

EPOCH          = 2025-12-31T08:22:52.684896
MEAN_MOTION    = 15.49344325
ECCENTRICITY   = .00014069
INCLINATION    = 53.1604
RA_OF_ASC_NODE = 342.1153
ARG_OF_PERICENTER = 100.3890
MEAN_ANOMALY   = 259.7278

EPHEMERIS_TYPE = 0
CLASSIFICATION_TYPE = U
NORAD_CAT_ID   = 66892
ELEMENT_SET_NO = 999
REV_AT_EPOCH   = 537
BSTAR          = .27228281E-2
MEAN_MOTION_DOT = .154201E-2
MEAN_MOTION_DDOT = 0

