STARLINK-35860          
1 66881U 25283D   25365.35298943  .00096048  00000+0  17094-2 0  9992
2 66881  53.1600 342.1440 0001370  88.7766 271.3400 15.49382648  5379
STARLINK-35912          
1 66882U 25283E   25365.58335648 -.02083642  00000+0 -45534-1 0  9991
2 66882  53.1595 341.0420 0001646  84.3999 121.2126 15.47115105  5452
STARLINK-35947          
1 66883U 25283F   25365.58335648 -.02099576  00000+0 -48417-1 0  9998
2 66883  53.1596 341.0450 0001346  90.7009 113.2113 15.45600806  5505
STARLINK-36057          
1 66884U 25283G   25365.22260875  .00108114  00000+0  19229-2 0  9994
2 66884  53.1599 342.7508 0001420 114.7727 245.3430 15.49343070  5351
STARLINK-35954          
1 66885U 25283H   25365.35196871  .00080482  00000+0  14386-2 0  9999
2 66885  53.1602 342.1363 0002027 112.7901 247.3322 15.49340786  5371
STARLINK-35900          
1 66886U 25283J   25365.35128404  .00089631  00000+0  15995-2 0  9999
2 66886  53.1607 342.1315 0001982  84.9587 275.1648 15.49337716  5372
STARLINK-35925          
1 66887U 25283K   25365.22192036  .00103761  00000+0  18457-2 0  9995
2 66887  53.1602 342.7455 0001217 106.8397 253.2746 15.49360357  5354
STARLINK-35919          
1 66888U 25283L   25365.54411671  .00092314  00000+0  16462-2 0  9995
2 66888  53.1599 341.1918 0001707 129.6989 230.4171 15.49345601  5401
STARLINK-35852          
1 66889U 25283M   25365.28523296  .05084319  00000+0  67649-1 0  9997
2 66889  53.1592 342.4280 0016761 295.0972  64.8300 15.53492178  5362
STARLINK-35885          
1 66890U 25283N   25365.58335648 -.00006345  00000+0 -10617-3 0  9999
2 66890  53.1592 341.0052 0001533  84.4883 138.4274 15.49294886  5457
STARLINK-35855          
1 66891U 25283P   25365.54308981  .00076413  00000+0  13679-2 0  9997
2 66891  53.1607 341.1937 0000962 107.6127 252.4987 15.49321780  5409
STARLINK-35883          
1 66892U 25283Q   25365.34922089  .00154201  00000+0  27228-2 0  9994
2 66892  53.1604 342.1153 0001406 100.3890 259.7278 15.49344325  5378
